NORAD_CAT_ID,OBJECT_NAME,OBJECT_TYPE,EPOCH,MEAN_MOTION,ECCENTRICITY,INCLINATION,RA_OF_ASC_NODE,ARG_OF_PERICENTER,MEAN_ANOMALY,BSTAR,MEAN_MOTION_DOT,MEAN_MOTION_DDOT,TLE_LINE0,TLE_LINE1,TLE_LINE2,SEMIMAJOR_AXIS,PERIOD,APOGEE,PERIGEE,DECAYED
53165.0,STARLINK-4090,PAYLOAD,2023-12-13 22:43:01,15.08847818,0.0001326,53.2166,230.6213,109.9861,250.1274,2.2378e-05,6.8e-07,0.0,0 STARLINK-4090,1 53165U 22083AK  23347.94653959  .00000068  00000-0  22378-4 0  9994,2 53165  53.2166 230.6213 0001326 109.9861 250.1274 15.08847818 78699,6917.856,95.437,540.639,538.804,0.0
53165.0,STARLINK-4090,PAYLOAD,2023-12-14 20:58:25,15.08828677,0.0001363,53.216,226.4596,81.83,278.2847,0.00025988,3.849e-05,0.0,0 STARLINK-4090,1 53165U 22083AK  23348.87390352  .00003849  00000-0  25988-3 0  9991,2 53165  53.2160 226.4596 0001363  81.8300 278.2847 15.08828677 78832,6917.915,95.438,540.723,538.837,0.0
53165.0,STARLINK-4090,PAYLOAD,2023-12-14 22:33:48,15.08846847,0.0001456,53.2158,226.1624,86.977,273.1389,3.2887e-05,2.36e-06,0.0,0 STARLINK-4090,1 53165U 22083AK  23348.94014014  .00000236  00000-0  32887-4 0  9991,2 53165  53.2158 226.1624 0001456  86.9770 273.1389 15.08846847 78214,6917.859,95.437,540.732,538.717,0.0
53165.0,STARLINK-4090,PAYLOAD,2023-12-15 19:13:49,15.08838096,0.0001801,53.2165,222.292,122.4246,237.6921,-3.507e-05,-8.46e-06,0.0,0 STARLINK-4090,1 53165U 22083AK  23349.80126646 -.00000846  00000-0 -35070-4 0  9998,2 53165  53.2165 222.2920 0001801 122.4246 237.6921 15.08838096 78973,6917.886,95.438,540.997,538.505,0.0
53165.0,STARLINK-4090,PAYLOAD,2023-12-15 22:24:36,15.0883111,0.0001338,53.2175,221.6988,97.5073,262.6071,2.3865e-05,9.2e-07,0.0,0 STARLINK-4090,1 53165U 22083AK  23349.93375033  .00000092  00000-0  23865-4 0  9998,2 53165  53.2175 221.6988 0001338  97.5073 262.6071 15.08831110 78363,6917.908,95.438,540.698,538.847,0.0
53165.0,STARLINK-4090,PAYLOAD,2023-12-16 19:04:36,15.08841371,0.0001409,53.2165,217.8336,103.3631,256.7518,3.1482e-05,2.13e-06,0.0,0 STARLINK-4090,1 53165U 22083AK  23350.79486578  .00000213  00000-0  31482-4 0  9990,2 53165  53.2165 217.8336 0001409 103.3631 256.7518 15.08841371 79126,6917.876,95.437,540.716,538.766,0.0
53165.0,STARLINK-4090,PAYLOAD,2023-12-16 22:15:22,15.08844054,0.0001464,53.2165,217.2381,109.1149,251.0002,2.153e-05,5.5e-07,0.0,0 STARLINK-4090,1 53165U 22083AK  23350.92734371  .00000055  00000-0  21530-4 0  9999,2 53165  53.2165 217.2381 0001464 109.1149 251.0002 15.08844054 78518,6917.868,95.437,540.746,538.72,0.0
53165.0,STARLINK-4090,PAYLOAD,2023-12-17 18:55:23,15.08834761,0.0001399,53.2167,213.3742,100.4406,259.6744,7.3952e-05,8.89e-06,0.0,0 STARLINK-4090,1 53165U 22083AK  23351.78847129  .00000889  00000-0  73952-4 0  9990,2 53165  53.2167 213.3742 0001399 100.4406 259.6744 15.08834761 79270,6917.896,95.438,540.729,538.794,0.0
53165.0,STARLINK-4090,PAYLOAD,2023-12-17 20:30:46,15.08837018,0.0001377,53.2161,213.0761,94.3732,265.7417,9.6982e-05,1.256e-05,0.0,0 STARLINK-4090,1 53165U 22083AK  23351.85471031  .00001256  00000-0  96982-4 0  9990,2 53165  53.2161 213.0761 0001377  94.3732 265.7417 15.08837018 78655,6917.89,95.438,540.707,538.802,0.0
53165.0,STARLINK-4090,PAYLOAD,2023-12-18 21:56:57,15.08839356,0.0001487,53.2159,208.3216,83.6853,276.4309,5.5628e-05,5.97e-06,0.0,0 STARLINK-4090,1 53165U 22083AK  23352.91455295  .00000597  00000-0  55628-4 0  9991,2 53165  53.2159 208.3216 0001487  83.6853 276.4309 15.08839356 78815,6917.882,95.438,540.776,538.719,0.0
53165.0,STARLINK-4090,PAYLOAD,2023-12-19 21:47:44,15.08838777,0.0001571,53.2157,203.8599,71.9799,288.1364,8.4901e-05,1.063e-05,0.0,0 STARLINK-4090,1 53165U 22083AK  23353.90815462  .00001063  00000-0  84901-4 0  9992,2 53165  53.2157 203.8599 0001571  71.9799 288.1364 15.08838777 78963,6917.884,95.438,540.836,538.662,0.0
53165.0,STARLINK-4090,PAYLOAD,2023-12-20 18:27:44,15.08849394,0.0001316,53.2151,199.9943,98.5186,261.5955,0.00012982,1.779e-05,0.0,0 STARLINK-4090,1 53165U 22083AK  23354.76926458  .00001779  00000-0  12982-3 0  9998,2 53165  53.2151 199.9943 0001316  98.5186 261.5955 15.08849394 79720,6917.852,95.437,540.627,538.806,0.0
53165.0,STARLINK-4090,PAYLOAD,2023-12-20 21:38:29,15.08867738,0.0001577,53.2158,199.3981,79.2331,280.8838,0.00029589,4.428e-05,0.0,0 STARLINK-4090,1 53165U 22083AK  23354.90173030  .00004428  00000-0  29589-3 0  9999,2 53165  53.2158 199.3981 0001577  79.2331 280.8838 15.08867738 79119,6917.796,95.436,540.752,538.57,0.0
53165.0,STARLINK-4090,PAYLOAD,2023-12-22 19:44:42,15.08837472,0.0001411,53.2174,190.7711,122.2924,237.8205,2.9885e-05,1.88e-06,0.0,0 STARLINK-4090,1 53165U 22083AK  23356.82271303  .00000188  00000-0  29885-4 0  9993,2 53165  53.2174 190.7711 0001411 122.2924 237.8205 15.08837472 80032,6917.888,95.438,540.729,538.777,0.0
53165.0,STARLINK-4090,PAYLOAD,2023-12-23 13:13:56,15.08833335,0.0001218,53.216,187.4966,102.6682,257.4446,0.00015244,2.139e-05,0.0,0 STARLINK-4090,1 53165U 22083AK  23357.55135407  .00002139  00000-0  15244-3 0  9999,2 53165  53.2160 187.4966 0001218 102.6682 257.4446 15.08833335 79510,6917.901,95.438,540.608,538.923,0.0
53165.0,STARLINK-4090,PAYLOAD,2023-12-23 19:35:29,15.08838582,0.0001208,53.2157,186.3126,96.2635,263.8494,0.00020096,2.912e-05,0.0,0 STARLINK-4090,1 53165U 22083AK  23357.81631261  .00002912  00000-0  20096-3 0  9997,2 53165  53.2157 186.3126 0001208  96.2635 263.8494 15.08838582 79554,6917.885,95.438,540.585,538.914,0.0
53165.0,STARLINK-4090,PAYLOAD,2023-12-24 13:04:44,15.0883909,0.0001233,53.2143,183.0426,91.1416,268.9717,9.8765e-05,1.284e-05,0.0,0 STARLINK-4090,1 53165U 22083AK  23358.54495744  .00001284  00000-0  98765-4 0  9992,2 53165  53.2143 183.0426 0001233  91.1416 268.9717 15.08839090 79666,6917.883,95.438,540.601,538.895,0.0
53165.0,STARLINK-4090,PAYLOAD,2023-12-24 19:26:16,15.08839666,0.0001233,53.2156,181.8525,95.8254,264.2879,0.00011007,1.464e-05,0.0,0 STARLINK-4090,1 53165U 22083AK  23358.80991669  .00001464  00000-0  11007-3 0  9991,2 53165  53.2156 181.8525 0001233  95.8254 264.2879 15.08839666 80330,6917.881,95.438,540.599,538.893,0.0
53165.0,STARLINK-4090,PAYLOAD,2023-12-25 19:17:03,15.08841509,0.0001233,53.2158,177.3916,94.1053,266.008,5.2407e-05,5.46e-06,0.0,0 STARLINK-4090,1 53165U 22083AK  23359.80351674  .00000546  00000-0  52407-4 0  9998,2 53165  53.2158 177.3916 0001233  94.1053 266.0080 15.08841509 79853,6917.876,95.437,540.594,538.888,0.0
53165.0,STARLINK-4090,PAYLOAD,2023-12-25 22:27:50,15.08842612,0.0001243,53.2159,176.7963,94.9599,265.1535,5.5259e-05,5.92e-06,0.0,0 STARLINK-4090,1 53165U 22083AK  23359.93599550  .00000592  00000-0  55259-4 0  9998,2 53165  53.2159 176.7963 0001243  94.9599 265.1535 15.08842612 80508,6917.872,95.437,540.597,538.878,0.0
53165.0,STARLINK-4090,PAYLOAD,2023-12-26 20:43:13,15.08841388,0.0001266,53.2163,172.6322,96.2564,263.8572,7.2394e-05,8.65e-06,0.0,0 STARLINK-4090,1 53165U 22083AK  23360.86335616  .00000865  00000-0  72394-4 0  9995,2 53165  53.2163 172.6322 0001266  96.2564 263.8572 15.08841388 80010,6917.876,95.437,540.617,538.865,0.0
53165.0,STARLINK-4090,PAYLOAD,2023-12-27 17:23:14,15.08841957,0.0001265,53.2167,168.7659,92.5685,267.5452,6.3012e-05,7.15e-06,0.0,0 STARLINK-4090,1 53165U 22083AK  23361.72447654  .00000715  00000-0  63012-4 0  9998,2 53165  53.2167 168.7659 0001265  92.5685 267.5452 15.08841957 80778,6917.874,95.437,540.615,538.864,0.0
53165.0,STARLINK-4090,PAYLOAD,2023-12-28 10:52:29,15.08837849,0.0001234,53.2164,165.496,95.1304,264.9829,5.1952e-05,5.39e-06,0.0,0 STARLINK-4090,1 53165U 22083AK  23362.45311954  .00000539  00000-0  51952-4 0  9996,2 53165  53.2164 165.4960 0001234  95.1304 264.9829 15.08837849 80254,6917.887,95.438,540.606,538.898,0.0
53165.0,STARLINK-4090,PAYLOAD,2023-12-28 17:14:01,15.08841439,0.000121,53.2162,164.3074,95.5794,264.5337,4.2443e-05,3.88e-06,0.0,0 STARLINK-4090,1 53165U 22083AK  23362.71807715  .00000388  00000-0  42443-4 0  9997,2 53165  53.2162 164.3074 0001210  95.5794 264.5337 15.08841439 80291,6917.876,95.437,540.578,538.904,0.0
53165.0,STARLINK-4090,PAYLOAD,2023-12-29 17:04:48,15.08841232,0.0001368,53.2163,159.8487,67.5383,292.5753,6.8259e-05,7.99e-06,0.0,0 STARLINK-4090,1 53165U 22083AK  23363.71167705  .00000799  00000-0  68259-4 0  9995,2 53165  53.2163 159.8487 0001368  67.5383 292.5753 15.08841232 81077,6917.877,95.437,540.688,538.795,0.0
53165.0,STARLINK-4090,PAYLOAD,2023-12-30 13:44:49,15.08839324,0.0001293,53.2165,155.983,69.6373,290.4758,3.865e-05,3.27e-06,0.0,0 STARLINK-4090,1 53165U 22083AK  23364.57279898  .00000327  00000-0  38650-4 0  9996,2 53165  53.2165 155.9830 0001293  69.6373 290.4758 15.08839324 80572,6917.882,95.438,540.642,538.853,0.0
53165.0,STARLINK-4090,PAYLOAD,2023-12-30 16:55:35,15.08841459,0.0001253,53.2168,155.3876,75.0795,285.0336,4.39e-05,4.11e-06,0.0,0 STARLINK-4090,1 53165U 22083AK  23364.70527709  .00000411  00000-0  43900-4 0  9996,2 53165  53.2168 155.3876 0001253  75.0795 285.0336 15.08841459 80590,6917.876,95.437,540.608,538.874,0.0
53165.0,STARLINK-4090,PAYLOAD,2023-12-31 10:24:50,15.08836264,0.0001311,53.217,152.1162,72.9823,287.1313,-8.2672e-07,-3.01e-06,0.0,0 STARLINK-4090,1 53165U 22083AK  23365.43392266 -.00000301  00000-0 -82672-6 0  9996,2 53165  53.2170 152.1162 0001311  72.9823 287.1313 15.08836264 81338,6917.892,95.438,540.664,538.85,0.0
53165.0,STARLINK-4090,PAYLOAD,2023-12-31 19:57:09,15.08837845,0.0001229,53.2169,150.3317,83.7163,276.3969,5.0101e-06,-2.08e-06,0.0,0 STARLINK-4090,1 53165U 22083AK  23365.83136092 -.00000208  00000-0  50101-5 0  9999,2 53165  53.2169 150.3317 0001229  83.7163 276.3969 15.08837845 80762,6917.887,95.438,540.602,538.902,0.0
53165.0,STARLINK-4090,PAYLOAD,2024-01-01 13:26:24,15.0883775,0.0001216,53.2166,147.0607,98.9586,261.1544,3.2018e-05,2.22e-06,0.0,0 STARLINK-4090,1 53165U 22083AK  24001.56000097  .00000222  00000-0  32018-4 0  9993,2 53165  53.2166 147.0607 0001216  98.9586 261.1544 15.08837750 80875,6917.887,95.438,540.593,538.911,0.0
